{{Infobox Planet  
| name =  338 Budrosa
| image = 
| caption = 
| discovery=yes | physical_characteristics = yes | bgcolour=#FFFFC0
| discovery_ref = 
| discoverer = [[奥古斯特·沙卢瓦|奥古斯特·沙卢瓦]]
| discovery_site = [[尼斯|尼斯]]
| discovered =  1892年9月25日
| mp_name = 338
| alt_names = 1892 F
| named_after = 
| mp_category=[[小行星带|主带小行星]]
| orbit_ref = <ref>[http://ssd.jpl.nasa.gov/sbdb.cgi?sstr=338 338 Budrosa]</ref>
| epoch = 2011年8月27日
| semimajor= 2.911574758897301AU
| perihelion=2.848660645053168AU
| aphelion=2.974488872741434[[天文单位|AU]]
| eccentricity =0.02160827698202749
| period =1814.639438788591[[日|地球日]]<br>4.97[[年|地球年]] 
| inclination=6.037829990092762[[角度|°]]
| asc_node=287.5974527300747°	
| arg_peri=121.226004990449°
| mean_anomaly=294.9515553442243°
| avg_speed=17.45 km/s
 | dimensions=63.11千米
 | mass=
 | density=
 | surface_grav=
 | escape_velocity=
 | rotation=4.6084[[小时|小时]]
 | spectral_type=[[M-型小行星|M]]/[[X-型小行星|X]]
 | magnitude=
 | abs_magnitude=8.50
 | albedo=0.1766
 | single_temperature=
}}
'''小行星338'''（'''338 Budrosa'''），是由[[法国|法国]][[天文学家|天文学家]][[奥古斯特·沙卢瓦|奥古斯特·沙卢瓦]]于1892年9月25日在法国[[尼斯|尼斯]]发现的[[小行星带|主带]][[小行星|小行星]]。

小行星338的命名依据不明。

== 参考资料 ==
{{Reflist}}

{{Minor Planet Number|(337)[[小行星337|小行星337]]|(339)[[小行星339|小行星339]]}}

[[Category:小行星带天体|Category:小行星带天体]]
[[Category:1892年发现的小行星|Category:1892年发现的小行星]]
[[Category:M-型小行星|Category:M-型小行星]]
[[Category:X-型小行星|Category:X-型小行星]]